{
    "links": {
        "self": "http://www.neowsapp.com/rest/v1/neo/3764805?api_key=iIulBulltgU6a56xZRHN4H3l9WmuAYTsLGpBGhQ2"
    },
    "id": "3764805",
    "neo_reference_id": "3764805",
    "name": "(2016 WV7)",
    "designation": "2016 WV7",
    "nasa_jpl_url": "http://ssd.jpl.nasa.gov/sbdb.cgi?sstr=3764805",
    "absolute_magnitude_h": 27.2,
    "estimated_diameter": {
        "kilometers": {
            "estimated_diameter_min": 0.0096506147,
            "estimated_diameter_max": 0.0215794305
        },
        "meters": {
            "estimated_diameter_min": 9.6506146958,
            "estimated_diameter_max": 21.5794304844
        },
        "miles": {
            "estimated_diameter_min": 0.0059966121,
            "estimated_diameter_max": 0.0134088323
        },
        "feet": {
            "estimated_diameter_min": 31.6621227185,
            "estimated_diameter_max": 70.7986587106
        }
    },
    "is_potentially_hazardous_asteroid": false,
    "close_approach_data": [
        {
            "close_approach_date": "2015-01-14",
            "close_approach_date_full": "2015-Jan-14 06:03",
            "epoch_date_close_approach": 1421215380000,
            "relative_velocity": {
                "kilometers_per_second": "18.7340998064",
                "kilometers_per_hour": "67442.7593030728",
                "miles_per_hour": "41906.3078569565"
            },
            "miss_distance": {
                "astronomical": "0.4774282875",
                "lunar": "185.7196038375",
                "kilometers": "71422254.887747625",
                "miles": "44379731.271762225"
            },
            "orbiting_body": "Earth"
        },
        {
            "close_approach_date": "2016-11-26",
            "close_approach_date_full": "2016-Nov-26 11:12",
            "epoch_date_close_approach": 1480158720000,
            "relative_velocity": {
                "kilometers_per_second": "4.7883674856",
                "kilometers_per_hour": "17238.1229481313",
                "miles_per_hour": "10711.0992285208"
            },
            "miss_distance": {
                "astronomical": "0.0276295719",
                "lunar": "10.7479034691",
                "kilometers": "4133325.105251853",
                "miles": "2568329.1253994514"
            },
            "orbiting_body": "Earth"
        },
        {
            "close_approach_date": "2018-09-28",
            "close_approach_date_full": "2018-Sep-28 07:34",
            "epoch_date_close_approach": 1538120040000,
            "relative_velocity": {
                "kilometers_per_second": "17.6989095642",
                "kilometers_per_hour": "63716.0744312424",
                "miles_per_hour": "39590.690804235"
            },
            "miss_distance": {
                "astronomical": "0.4474345427",
                "lunar": "174.0520371103",
                "kilometers": "66935254.552344049",
                "miles": "41591638.5489199162"
            },
            "orbiting_body": "Earth"
        },
        {
            "close_approach_date": "2024-04-23",
            "close_approach_date_full": "2024-Apr-23 05:39",
            "epoch_date_close_approach": 1713850740000,
            "relative_velocity": {
                "kilometers_per_second": "10.1046576443",
                "kilometers_per_hour": "36376.7675193112",
                "miles_per_hour": "22603.1086844298"
            },
            "miss_distance": {
                "astronomical": "0.0982663656",
                "lunar": "38.2256162184",
                "kilometers": "14700438.986401272",
                "miles": "9134429.2170386736"
            },
            "orbiting_body": "Mars"
        }
    ],
    "orbital_data": {
        "orbit_id": "5",
        "orbit_determination_date": "2017-04-06 08:21:56",
        "first_observation_date": "2016-11-25",
        "last_observation_date": "2016-12-10",
        "data_arc_in_days": 15,
        "observations_used": 28,
        "orbit_uncertainty": "7",
        "minimum_orbit_intersection": ".028326",
        "jupiter_tisserand_invariant": "4.386",
        "epoch_osculation": "2459000.5",
        "eccentricity": ".3451365355754639",
        "semi_major_axis": "1.546363087549546",
        "inclination": "4.065957271358538",
        "ascending_node_longitude": "72.26424455065104",
        "orbital_period": "702.3694903553552",
        "perihelion_distance": "1.012656688770918",
        "perihelion_argument": "349.1420543756537",
        "aphelion_distance": "2.080069486328174",
        "perihelion_time": "2459121.261251351094",
        "mean_anomaly": "298.103731606567",
        "mean_motion": ".5125507371025789",
        "equinox": "J2000",
        "orbit_class": {
            "orbit_class_type": "APO",
            "orbit_class_description": "Near-Earth asteroid orbits which cross the Earth’s orbit similar to that of 1862 Apollo",
            "orbit_class_range": "a (semi-major axis) > 1.0 AU; q (perihelion) < 1.017 AU"
        }
    },
    "is_sentry_object": false
}